CCSDS_OMM_VERS = 2.0
CREATION_DATE  = 
ORIGINATOR     = 

OBJECT_NAME    = STARLINK-35852
OBJECT_ID      = 2025-283M
CENTER_NAME    = EARTH
REF_FRAME      = TEME
TIME_SYSTEM    = UTC
MEAN_ELEMENT_THEORY = SGP/SGP4

EPOCH          = 2026-01-01T16:00:00.999936
MEAN_MOTION    = 15.49618927
ECCENTRICITY   = .00016067
INCLINATION    = 53.1592
RA_OF_ASC_NODE = 335.8281
ARG_OF_PERICENTER = 90.9375
MEAN_ANOMALY   = 55.6842

EPHEMERIS_TYPE = 0
CLASSIFICATION_TYPE = U
NORAD_CAT_ID   = 66889
ELEMENT_SET_NO = 999
REV_AT_EPOCH   = 563
BSTAR          = -.16982916E-1
MEAN_MOTION_DOT = -.869981E-2
MEAN_MOTION_DDOT = 0

CCSDS_OMM_VERS = 2.0
CREATION_DATE  = 
ORIGINATOR     = 

OBJECT_NAME    = STARLINK-35885
OBJECT_ID      = 2025-283N
CENTER_NAME    = EARTH
REF_FRAME      = TEME
TIME_SYSTEM    = UTC
MEAN_ELEMENT_THEORY = SGP/SGP4

EPOCH          = 2026-01-02T06:50:38.644800
MEAN_MOTION    = 15.49197409
ECCENTRICITY   = .00027668
INCLINATION    = 53.1589
RA_OF_ASC_NODE = 332.8682
ARG_OF_PERICENTER = 282.1337
MEAN_ANOMALY   = 77.9362

EPHEMERIS_TYPE = 0
CLASSIFICATION_TYPE = U
NORAD_CAT_ID   = 66890
ELEMENT_SET_NO = 999
REV_AT_EPOCH   = 567
BSTAR          = .15673453E-2
MEAN_MOTION_DOT = .87363E-3
MEAN_MOTION_DDOT = 0

CCSDS_OMM_VERS = 2.0
CREATION_DATE  = 
ORIGINATOR     = 

OBJECT_NAME    = STARLINK-35855
OBJECT_ID      = 2025-283P
CENTER_NAME    = EARTH
REF_FRAME      = TEME
TIME_SYSTEM    = UTC
MEAN_ELEMENT_THEORY = SGP/SGP4

EPOCH          = 2026-01-02T05:16:44.666688
MEAN_MOTION    = 15.49322515
ECCENTRICITY   = .00018193
INCLINATION    = 53.1606
RA_OF_ASC_NODE = 333.1724
ARG_OF_PERICENTER = 46.1540
MEAN_ANOMALY   = 313.9619

EPHEMERIS_TYPE = 0
CLASSIFICATION_TYPE = U
NORAD_CAT_ID   = 66891
ELEMENT_SET_NO = 999
REV_AT_EPOCH   = 566
BSTAR          = .21155041E-2
MEAN_MOTION_DOT = .119074E-2
MEAN_MOTION_DDOT = 0

CCSDS_OMM_VERS = 2.0
CREATION_DATE  = 
ORIGINATOR     = 

OBJECT_NAME    = STARLINK-35883
OBJECT_ID      = 2025-283Q
CENTER_NAME    = EARTH
REF_FRAME      = TEME
TIME_SYSTEM    = UTC
MEAN_ELEMENT_THEORY = SGP/SGP4

EPOCH          = 2026-01-02T05:16:44.594112
MEAN_MOTION    = 15.49355445
ECCENTRICITY   = .00011369
INCLINATION    = 53.1591
RA_OF_ASC_NODE = 333.1726
ARG_OF_PERICENTER = 67.6531
MEAN_ANOMALY   = 292.4598

EPHEMERIS_TYPE = 0
CLASSIFICATION_TYPE = U
NORAD_CAT_ID   = 66892
ELEMENT_SET_NO = 999
REV_AT_EPOCH   = 566
BSTAR          = .25364127E-2
MEAN_MOTION_DOT = .14347E-2
MEAN_MOTION_DDOT = 0

CCSDS_OMM_VERS = 2.0
CREATION_DATE  = 
ORIGINATOR     = 

OBJECT_NAME    = STARLINK-36033
OBJECT_ID      = 2025-283R
CENTER_NAME    = EARTH
REF_FRAME      = TEME
TIME_SYSTEM    = UTC
MEAN_ELEMENT_THEORY = SGP/SGP4

EPOCH          = 2026-01-02T06:00:02.999808
MEAN_MOTION    = 15.35593018
ECCENTRICITY   = .00011899
INCLINATION    = 53.1599
RA_OF_ASC_NODE = 333.1723
ARG_OF_PERICENTER = 73.0600
MEAN_ANOMALY   = 21.8433

EPHEMERIS_TYPE = 0
CLASSIFICATION_TYPE = U
NORAD_CAT_ID   = 66893
ELEMENT_SET_NO = 999
REV_AT_EPOCH   = 572
BSTAR          = -.65255051E-1
MEAN_MOTION_DOT = -.2067634E-1
MEAN_MOTION_DDOT = 0

CCSDS_OMM_VERS = 2.0
CREATION_DATE  = 
ORIGINATOR     = 

OBJECT_NAME    = STARLINK-35718
OBJECT_ID      = 2025-283S
CENTER_NAME    = EARTH
REF_FRAME      = TEME
TIME_SYSTEM    = UTC
MEAN_ELEMENT_THEORY = SGP/SGP4

EPOCH          = 2026-01-02T03:42:52.274880
MEAN_MOTION    = 15.49253957
ECCENTRICITY   = .00009944
INCLINATION    = 53.1605
RA_OF_ASC_NODE = 333.4766
ARG_OF_PERICENTER = 109.0816
MEAN_ANOMALY   = 251.0301

EPHEMERIS_TYPE = 0
CLASSIFICATION_TYPE = U
NORAD_CAT_ID   = 66894
ELEMENT_SET_NO = 999
REV_AT_EPOCH   = 565
BSTAR          = .17283564E-2
MEAN_MOTION_DOT = .96685E-3
MEAN_MOTION_DDOT = 0

CCSDS_OMM_VERS = 2.0
CREATION_DATE  = 
ORIGINATOR     = 

OBJECT_NAME    = STARLINK-35971
OBJECT_ID      = 2025-283T
CENTER_NAME    = EARTH
REF_FRAME      = TEME
TIME_SYSTEM    = UTC
MEAN_ELEMENT_THEORY = SGP/SGP4

EPOCH          = 2026-01-02T06:00:02.999808
MEAN_MOTION    = 15.39018572
ECCENTRICITY   = .00014623
INCLINATION    = 53.1593
RA_OF_ASC_NODE = 333.0945
ARG_OF_PERICENTER = 85.7821
MEAN_ANOMALY   = 47.7724

EPHEMERIS_TYPE = 0
CLASSIFICATION_TYPE = U
NORAD_CAT_ID   = 66895
ELEMENT_SET_NO = 999
REV_AT_EPOCH   = 572
BSTAR          = -.58223118E-1
MEAN_MOTION_DOT = -.2029528E-1
MEAN_MOTION_DDOT = 0

CCSDS_OMM_VERS = 2.0
CREATION_DATE  = 
ORIGINATOR     = 

OBJECT_NAME    = STARLINK-35791
OBJECT_ID      = 2025-283U
CENTER_NAME    = EARTH
REF_FRAME      = TEME
TIME_SYSTEM    = UTC
MEAN_ELEMENT_THEORY = SGP/SGP4

EPOCH          = 2026-01-02T06:00:02.999808
MEAN_MOTION    = 15.49378090
ECCENTRICITY   = .00012842
INCLINATION    = 53.1589
RA_OF_ASC_NODE = 333.0150
ARG_OF_PERICENTER = 84.0307
MEAN_ANOMALY   = 89.6786

EPHEMERIS_TYPE = 0
CLASSIFICATION_TYPE = U
NORAD_CAT_ID   = 66896
ELEMENT_SET_NO = 999
REV_AT_EPOCH   = 572
BSTAR          = -.27445459E-2
MEAN_MOTION_DOT = -.150554E-2
MEAN_MOTION_DDOT = 0

CCSDS_OMM_VERS = 2.0
CREATION_DATE  = 
ORIGINATOR     = 

OBJECT_NAME    = STARLINK-36079
OBJECT_ID      = 2025-283V
CENTER_NAME    = EARTH
REF_FRAME      = TEME
TIME_SYSTEM    = UTC
MEAN_ELEMENT_THEORY = SGP/SGP4

EPOCH          = 2026-01-02T06:00:02.999808
MEAN_MOTION    = 15.39089789
ECCENTRICITY   = .00014796
INCLINATION    = 53.1594
RA_OF_ASC_NODE = 333.0899
ARG_OF_PERICENTER = 74.8511
MEAN_ANOMALY   = 61.1538

EPHEMERIS_TYPE = 0
CLASSIFICATION_TYPE = U
NORAD_CAT_ID   = 66897
ELEMENT_SET_NO = 999
REV_AT_EPOCH   = 572
BSTAR          = -.58324698E-1
MEAN_MOTION_DOT = -.2036943E-1
MEAN_MOTION_DDOT = 0

CCSDS_OMM_VERS = 2.0
CREATION_DATE  = 
ORIGINATOR     = 

OBJECT_NAME    = STARLINK-36065
OBJECT_ID      = 2025-283W
CENTER_NAME    = EARTH
REF_FRAME      = TEME
TIME_SYSTEM    = UTC
MEAN_ELEMENT_THEORY = SGP/SGP4

EPOCH          = 2026-01-02T06:00:02.999808
MEAN_MOTION    = 15.41824340
ECCENTRICITY   = .00014924
INCLINATION    = 53.1589
RA_OF_ASC_NODE = 333.0469
ARG_OF_PERICENTER = 88.2575
MEAN_ANOMALY   = 68.9521

EPHEMERIS_TYPE = 0
CLASSIFICATION_TYPE = U
NORAD_CAT_ID   = 66898
ELEMENT_SET_NO = 999
REV_AT_EPOCH   = 572
BSTAR          = -.5311227E-1
MEAN_MOTION_DOT = -.2032811E-1
MEAN_MOTION_DDOT = 0

CCSDS_OMM_VERS = 2.0
CREATION_DATE  = 
ORIGINATOR     = 

OBJECT_NAME    = STARLINK-36064
OBJECT_ID      = 2025-283X
CENTER_NAME    = EARTH
REF_FRAME      = TEME
TIME_SYSTEM    = UTC
MEAN_ELEMENT_THEORY = SGP/SGP4

EPOCH          = 2026-01-02T06:00:02.999808
MEAN_MOTION    = 15.42445345
ECCENTRICITY   = .00013522
INCLINATION    = 53.1592
RA_OF_ASC_NODE = 333.0363
ARG_OF_PERICENTER = 84.6319
MEAN_ANOMALY   = 78.0256

EPHEMERIS_TYPE = 0
CLASSIFICATION_TYPE = U
NORAD_CAT_ID   = 66899
ELEMENT_SET_NO = 999
REV_AT_EPOCH   = 566
BSTAR          = -.52090038E-1
MEAN_MOTION_DOT = -.2035524E-1
MEAN_MOTION_DDOT = 0

CCSDS_OMM_VERS = 2.0
CREATION_DATE  = 
ORIGINATOR     = 

OBJECT_NAME    = STARLINK-36074
OBJECT_ID      = 2025-283Y
CENTER_NAME    = EARTH
REF_FRAME      = TEME
TIME_SYSTEM    = UTC
MEAN_ELEMENT_THEORY = SGP/SGP4

EPOCH          = 2026-01-02T06:00:02.999808
MEAN_MOTION    = 15.42467678
ECCENTRICITY   = .00015618
INCLINATION    = 53.1592
RA_OF_ASC_NODE = 333.0319
ARG_OF_PERICENTER = 74.6518
MEAN_ANOMALY   = 90.0704

EPHEMERIS_TYPE = 0
CLASSIFICATION_TYPE = U
NORAD_CAT_ID   = 66900
ELEMENT_SET_NO = 999
REV_AT_EPOCH   = 572
BSTAR          = -.51837733E-1
MEAN_MOTION_DOT = -.2028232E-1
MEAN_MOTION_DDOT = 0

