STARLINK-35852          
1 66889U 25283M   26001.66667824 -.00869981  00000+0 -16983-1 0  9991
2 66889  53.1592 335.8281 0001606  90.9375  55.6842 15.49618927  5636
STARLINK-35885          
1 66890U 25283N   26002.28516950  .00087363  00000+0  15673-2 0  9995
2 66890  53.1589 332.8682 0002766 282.1337  77.9362 15.49197409  5672
STARLINK-35855          
1 66891U 25283P   26002.21996142  .00119074  00000+0  21155-2 0  9991
2 66891  53.1606 333.1724 0001819  46.1540 313.9619 15.49322515  5661
STARLINK-35883          
1 66892U 25283Q   26002.21996058  .00143470  00000+0  25364-2 0  9991
2 66892  53.1591 333.1726 0001136  67.6531 292.4598 15.49355445  5662
STARLINK-36033          
1 66893U 25283R   26002.25003472 -.02067634  00000+0 -65255-1 0  9998
2 66893  53.1599 333.1723 0001189  73.0600  21.8433 15.35593018  5728
STARLINK-35718          
1 66894U 25283S   26002.15477170  .00096685  00000+0  17284-2 0  9992
2 66894  53.1605 333.4766 0000994 109.0816 251.0301 15.49253957  5652
STARLINK-35971          
1 66895U 25283T   26002.25003472 -.02029528  00000+0 -58223-1 0  9997
2 66895  53.1593 333.0945 0001462  85.7821  47.7724 15.39018572  5729
STARLINK-35791          
1 66896U 25283U   26002.25003472 -.00150554  00000+0 -27445-2 0  9993
2 66896  53.1589 333.0150 0001284  84.0307  89.6786 15.49378090  5724
STARLINK-36079          
1 66897U 25283V   26002.25003472 -.02036943  00000+0 -58325-1 0  9991
2 66897  53.1594 333.0899 0001479  74.8511  61.1538 15.39089789  5724
STARLINK-36065          
1 66898U 25283W   26002.25003472 -.02032811  00000+0 -53112-1 0  9991
2 66898  53.1589 333.0469 0001492  88.2575  68.9521 15.41824340  5726
STARLINK-36064          
1 66899U 25283X   26002.25003472 -.02035524  00000+0 -52090-1 0  9990
2 66899  53.1592 333.0363 0001352  84.6319  78.0256 15.42445345  5660
STARLINK-36074          
1 66900U 25283Y   26002.25003472 -.02028232  00000+0 -51838-1 0  9990
2 66900  53.1592 333.0319 0001561  74.6518  90.0704 15.42467678  5728
